OBJECT_NAME,OBJECT_ID,EPOCH,MEAN_MOTION,ECCENTRICITY,INCLINATION,RA_OF_ASC_NODE,ARG_OF_PERICENTER,MEAN_ANOMALY,EPHEMERIS_TYPE,CLASSIFICATION_TYPE,NORAD_CAT_ID,ELEMENT_SET_NO,REV_AT_EPOCH,BSTAR,MEAN_MOTION_DOT,MEAN_MOTION_DDOT
ONEWEB-0534,2023-029B,2026-07-02T12:46:50.061504,13.20772286,.00019498,87.9190,271.4110,102.3410,257.7942,0,U,55797,999,16317,-.73460477E-4,-.17E-6,0
ONEWEB-0556,2023-029C,2026-07-02T12:56:30.838848,13.20770069,.00011754,87.9187,271.4086,93.3770,266.7498,0,U,55798,999,16317,-.20510185E-3,-.7E-6,0
ONEWEB-0562,2023-029D,2026-07-02T12:37:08.817600,13.20771785,.00017382,87.9185,271.3923,75.4272,284.7054,0,U,55799,999,16317,-.88488953E-4,-.23E-6,0
ONEWEB-0563,2023-029E,2026-07-02T12:29:51.807264,13.20773160,.00019356,87.9185,271.4236,106.1041,254.0306,0,U,55800,999,16316,-.34550206E-4,-.1E-7,0
ONEWEB-0564,2023-029F,2026-07-02T12:20:11.366880,13.20771712,.00018951,87.9188,271.3985,88.5470,271.5880,0,U,55801,999,16317,-.5685109E-4,-.1E-6,0
ONEWEB-0638,2023-029G,2026-07-02T12:58:19.747776,13.14502221,.00014614,87.8962,286.6910,90.9988,269.1309,0,U,55802,999,16141,-.69536469E-3,-.245E-5,0
ONEWEB-0639,2023-029H,2026-07-02T13:47:03.660288,13.19725898,.00020801,87.9182,301.9110,128.6294,231.5025,0,U,55803,999,16093,.15225522E-3,.74E-6,0
ONEWEB-0640,2023-029J,2026-07-02T13:12:01.557792,13.14501899,.00012998,87.8964,286.6802,105.7429,254.3844,0,U,55804,999,16143,-.43131818E-3,-.147E-5,0
ONEWEB-0641,2023-029K,2026-07-02T13:40:14.805984,13.19726158,.00019726,87.9192,301.9024,105.9203,254.2147,0,U,55805,999,16094,.21312263E-3,.98E-6,0
ONEWEB-0642,2023-029L,2026-07-02T08:05:54.643200,13.19725584,.00022323,87.9184,301.9594,122.7209,237.4140,0,U,55806,999,16090,.15742067E-3,.76E-6,0
ONEWEB-0643,2023-029M,2026-07-02T12:28:38.938368,13.14502076,.00024285,87.8965,286.6732,115.4534,244.6848,0,U,55807,999,16140,.37946232E-3,.153E-5,0
ONEWEB-0644,2023-029N,2026-07-02T13:26:36.757824,13.19725510,.00020654,87.9182,301.9160,110.2336,249.9019,0,U,55808,999,16093,-.31427169E-4,0,0
ONEWEB-0645,2023-029P,2026-07-02T08:30:55.539936,13.19725238,.00016978,87.9180,301.9537,112.8603,247.2709,0,U,55809,999,16090,.12181236E-3,.62E-6,0
ONEWEB-0646,2023-029Q,2026-07-02T14:23:28.385376,13.19726227,.00020979,87.9182,301.9055,108.2968,251.8393,0,U,55810,999,16092,.9077611E-4,.49E-6,0
ONEWEB-0648,2023-029R,2026-07-02T08:03:45.739584,13.14502743,.00018517,87.8975,286.6848,129.4977,230.6317,0,U,55811,999,16138,.10237338E-3,.51E-6,0
ONEWEB-0649,2023-029S,2026-07-02T14:59:51.169056,13.19726363,.00018123,87.9184,301.8983,108.2467,251.8863,0,U,55812,999,16096,-.99775452E-4,-.27E-6,0
ONEWEB-0650,2023-029T,2026-07-02T14:53:01.725504,13.19724862,.00021091,87.9184,301.9018,118.0970,242.0377,0,U,55813,999,16093,-.1797572E-3,-.59E-6,0
ONEWEB-0652,2023-029U,2026-07-02T13:05:10.727520,13.14501870,.00020758,87.8972,286.6500,96.3827,263.7540,0,U,55814,999,16138,-.40709113E-3,-.138E-5,0
ONEWEB-0653,2023-029V,2026-07-02T07:13:30.146304,13.14501472,.00019064,87.8973,286.6966,98.7123,261.4222,0,U,55815,999,16138,-.82663651E-4,-.18E-6,0
ONEWEB-0654,2023-029W,2026-07-02T12:35:28.889952,13.14501396,.00019862,87.8972,286.6484,90.2378,269.8979,0,U,55816,999,16143,.1726813E-3,.77E-6,0
ONEWEB-0656,2023-029X,2026-07-02T12:10:26.834592,13.20773823,.00021036,87.9199,271.3777,87.5199,272.6175,0,U,55817,999,16317,.24328647E-3,.112E-5,0
ONEWEB-0657,2023-029Y,2026-07-02T14:46:13.399104,13.19725792,.00025717,87.9184,301.9012,92.9652,267.1776,0,U,55818,999,16094,-.6899406E-5,.1E-6,0
ONEWEB-0658,2023-029Z,2026-07-02T14:39:24.043680,13.19725885,.00020362,87.9193,301.8791,112.0369,248.0980,0,U,55819,999,16095,.10602849E-3,.55E-6,0
ONEWEB-0660,2023-029AA,2026-07-02T13:53:07.387872,13.14501467,.00017138,87.8984,286.6324,107.1000,253.0317,0,U,55820,999,16142,.59320158E-3,.233E-5,0
ONEWEB-0661,2023-029AB,2026-07-02T12:53:46.016160,13.14502328,.00016435,87.8966,286.6828,102.5794,257.5519,0,U,55821,999,16140,-.53756768E-3,-.187E-5,0
ONEWEB-0662,2023-029AC,2026-07-02T13:44:00.323808,13.14502901,.00017185,87.8962,286.6817,106.7604,253.3714,0,U,55822,999,16145,.14053207E-3,.65E-6,0
ONEWEB-0663,2023-029AD,2026-07-02T12:57:21.976416,13.20870705,.00018754,87.9199,271.4425,112.6291,247.5041,0,U,55823,999,16317,-.79920369E-4,-.2E-6,0
ONEWEB-0664,2023-029AE,2026-07-02T11:51:05.911488,13.20771661,.00015926,87.9182,271.4308,94.5969,265.5347,0,U,55824,999,16316,.84250975E-4,.47E-6,0
ONEWEB-0665,2023-029AF,2026-07-02T12:49:11.760960,13.14502484,.00017698,87.8966,286.6644,109.5434,250.5887,0,U,55825,999,16142,-.63078792E-3,-.221E-5,0
ONEWEB-0666,2023-029AG,2026-07-02T11:41:23.252352,13.20772165,.00026904,87.9184,271.4222,93.4848,266.6593,0,U,55826,999,16317,.85932652E-4,.48E-6,0
