ONEWEB-0534             
1 55797U 23029B   26183.53252386 -.00000017  00000+0 -73460-4 0  9996
2 55797  87.9190 271.4110 0001949 102.3410 257.7942 13.20772286163171
ONEWEB-0556             
1 55798U 23029C   26183.53924582 -.00000070  00000+0 -20510-3 0  9997
2 55798  87.9187 271.4086 0001175  93.3770 266.7498 13.20770069163172
ONEWEB-0562             
1 55799U 23029D   26183.52579650 -.00000023  00000+0 -88489-4 0  9997
2 55799  87.9185 271.3923 0001738  75.4272 284.7054 13.20771785163177
ONEWEB-0563             
1 55800U 23029E   26183.52073851 -.00000001  00000+0 -34550-4 0  9998
2 55800  87.9185 271.4236 0001935 106.1041 254.0306 13.20773160163161
ONEWEB-0564             
1 55801U 23029F   26183.51402045 -.00000010  00000+0 -56851-4 0  9997
2 55801  87.9188 271.3985 0001895  88.5470 271.5880 13.20771712163172
ONEWEB-0638             
1 55802U 23029G   26183.54050634 -.00000245  00000+0 -69536-3 0  9997
2 55802  87.8962 286.6910 0001461  90.9988 269.1309 13.14502221161413
ONEWEB-0639             
1 55803U 23029H   26183.57434792  .00000074  00000+0  15226-3 0  9997
2 55803  87.9182 301.9110 0002080 128.6294 231.5025 13.19725898160935
ONEWEB-0640             
1 55804U 23029J   26183.55001803 -.00000147  00000+0 -43132-3 0  9999
2 55804  87.8964 286.6802 0001299 105.7429 254.3844 13.14501899161433
ONEWEB-0641             
1 55805U 23029K   26183.56961581  .00000098  00000+0  21312-3 0  9998
2 55805  87.9192 301.9024 0001972 105.9203 254.2147 13.19726158160947
ONEWEB-0642             
1 55806U 23029L   26183.33743800  .00000076  00000+0  15742-3 0  9992
2 55806  87.9184 301.9594 0002232 122.7209 237.4140 13.19725584160908
ONEWEB-0643             
1 55807U 23029M   26183.51989512  .00000153  00000+0  37946-3 0  9991
2 55807  87.8965 286.6732 0002428 115.4534 244.6848 13.14502076161400
ONEWEB-0644             
1 55808U 23029N   26183.56014766  .00000000  00000+0 -31427-4 0  9998
2 55808  87.9182 301.9160 0002065 110.2336 249.9019 13.19725510160939
ONEWEB-0645             
1 55809U 23029P   26183.35480949  .00000062  00000+0  12181-3 0  9998
2 55809  87.9180 301.9537 0001697 112.8603 247.2709 13.19725238160902
ONEWEB-0646             
1 55810U 23029Q   26183.59963409  .00000049  00000+0  90776-4 0  9995
2 55810  87.9182 301.9055 0002097 108.2968 251.8393 13.19726227160920
ONEWEB-0648             
1 55811U 23029R   26183.33594606  .00000051  00000+0  10237-3 0  9993
2 55811  87.8975 286.6848 0001851 129.4977 230.6317 13.14502743161383
ONEWEB-0649             
1 55812U 23029S   26183.62489779 -.00000027  00000+0 -99775-4 0  9990
2 55812  87.9184 301.8983 0001812 108.2467 251.8863 13.19726363160968
ONEWEB-0650             
1 55813U 23029T   26183.62015886 -.00000059  00000+0 -17976-3 0  9992
2 55813  87.9184 301.9018 0002109 118.0970 242.0377 13.19724862160938
ONEWEB-0652             
1 55814U 23029U   26183.54526305 -.00000138  00000+0 -40709-3 0  9995
2 55814  87.8972 286.6500 0002075  96.3827 263.7540 13.14501870161388
ONEWEB-0653             
1 55815U 23029V   26183.30104336 -.00000018  00000+0 -82664-4 0  9990
2 55815  87.8973 286.6966 0001906  98.7123 261.4222 13.14501472161383
ONEWEB-0654             
1 55816U 23029W   26183.52463993  .00000077  00000+0  17268-3 0  9992
2 55816  87.8972 286.6484 0001986  90.2378 269.8979 13.14501396161437
ONEWEB-0656             
1 55817U 23029X   26183.50725503  .00000112  00000+0  24329-3 0  9995
2 55817  87.9199 271.3777 0002103  87.5199 272.6175 13.20773823163174
ONEWEB-0657             
1 55818U 23029Y   26183.61543286  .00000010  00000+0 -68994-5 0  9990
2 55818  87.9184 301.9012 0002571  92.9652 267.1776 13.19725792160942
ONEWEB-0658             
1 55819U 23029Z   26183.61069495  .00000055  00000+0  10603-3 0  9996
2 55819  87.9193 301.8791 0002036 112.0369 248.0980 13.19725885160950
ONEWEB-0660             
1 55820U 23029AA  26183.57855773  .00000233  00000+0  59320-3 0  9992
2 55820  87.8984 286.6324 0001713 107.1000 253.0317 13.14501467161425
ONEWEB-0661             
1 55821U 23029AB  26183.53733815 -.00000187  00000+0 -53757-3 0  9999
2 55821  87.8966 286.6828 0001643 102.5794 257.5519 13.14502328161404
ONEWEB-0662             
1 55822U 23029AC  26183.57222597  .00000065  00000+0  14053-3 0  9993
2 55822  87.8962 286.6817 0001718 106.7604 253.3714 13.14502901161451
ONEWEB-0663             
1 55823U 23029AD  26183.53983769 -.00000020  00000+0 -79920-4 0  9993
2 55823  87.9199 271.4425 0001875 112.6291 247.5041 13.20870705163170
ONEWEB-0664             
1 55824U 23029AE  26183.49381842  .00000047  00000+0  84251-4 0  9993
2 55824  87.9182 271.4308 0001592  94.5969 265.5347 13.20771661163168
ONEWEB-0665             
1 55825U 23029AF  26183.53416390 -.00000221  00000+0 -63079-3 0  9996
2 55825  87.8966 286.6644 0001769 109.5434 250.5887 13.14502484161427
ONEWEB-0666             
1 55826U 23029AG  26183.48707468  .00000048  00000+0  85933-4 0  9999
2 55826  87.9184 271.4222 0002690  93.4848 266.6593 13.20772165163177
